*******************************************************************************
JPL/HORIZONS               58 Concordia (A860 FA)          2020-Jun-20 08:02:53
Rec #:      58 (+COV) Soln.date: 2020-May-20_00:57:15   # obs: 3377 (1864-2020)
 
IAU76/J2000 helio. ecliptic osc. elements (au, days, deg., period=Julian yrs):
 
  EPOCH=  2455586.5 ! 2011-Jan-25.00 (TDB)         Residual RMS= .34658
   EC= .04467905134299604  QR= 2.579876413422616   TP= 2455643.1797220521
   OM= 161.1866716417913   W=  32.32543526606209   IN= 5.060462128069791
   A= 2.700533697130186    MA= 347.4119811483611   ADIST= 2.821190980837756
   PER= 4.43795            N= .222090336           ANGMOM= .028240497
   DAN= 2.59709            DDN= 2.80089            L= 193.4110814
   B= 2.7034548            MOID= 1.58117998        TP= 2011-Mar-22.6797220521
 
Asteroid physical parameters (km, seconds, rotational period in hours):
   GM= n.a.                RAD= 53.2585            ROTPER= 9.895
   H= 9.                   G= .150                 B-V= .690
                           ALBEDO= .044            STYP= Ch
 
ASTEROID comments: 
1: soln ref.= JPL#117, OCC=0
2: source=ORB
*******************************************************************************
 
 
*******************************************************************************
Ephemeris / WWW_USER Sat Jun 20 08:02:53 2020 Pasadena, USA      / Horizons
*******************************************************************************
Target body name: 58 Concordia (A860 FA)          {source: JPL#117}
Center body name: Solar System Barycenter (0)     {source: DE431}
Center-site name: BODY CENTER
*******************************************************************************
Start time      : A.D. 1969-Jun-28 00:00:00.0000 TDB
Stop  time      : A.D. 2071-May-04 00:00:00.0000 TDB
Step-size       : 7200 minutes
*******************************************************************************
Center geodetic : 0.00000000,0.00000000,0.0000000 {E-lon(deg),Lat(deg),Alt(km)}
Center cylindric: 0.00000000,0.00000000,0.0000000 {E-lon(deg),Dxy(km),Dz(km)}
Center radii    : (undefined)                                                  
Small perturbers: Yes                             {source: SB431-N16}
Output units    : AU-D
Output type     : GEOMETRIC cartesian states
Output format   : 2 (position and velocity)
Reference frame : Ecliptic of J2000.0
*******************************************************************************
Initial IAU76/J2000 heliocentric ecliptic osculating elements (au, days, deg.):
  EPOCH=  2455586.5 ! 2011-Jan-25.00 (TDB)         Residual RMS= .34658        
   EC= .04467905134299604  QR= 2.579876413422616   TP= 2455643.1797220521      
   OM= 161.1866716417913   W=  32.32543526606209   IN= 5.060462128069791       
  Equivalent ICRF heliocentric equatorial cartesian coordinates (au, au/d):
   X=-2.581991454520165E+00  Y=-1.548017329587159E-02  Z= 7.232279038413657E-02
  VX= 7.558750301073442E-05 VY=-1.035863779520150E-02 VZ=-3.497979192041788E-03
Asteroid physical parameters (km, seconds, rotational period in hours):        
   GM= n.a.                RAD= 53.2585            ROTPER= 9.895               
   H= 9.                   G= .150                 B-V= .690                   
                           ALBEDO= .044            STYP= Ch                    
*******************************************************************************
            JDTDB,            Calendar Date (TDB),        delta-T,                      X,                      Y,                      Z,                     VX,                     VY,                     VZ,
******************************************************************************************************************************************************************************************************************
$$SOE
2470080.500000000, A.D. 2050-Oct-01 00:00:00.0000,      69.182370, -2.404728458334411E+00,  9.873983348500266E-01, -1.209284094656748E-02, -3.873433325138254E-03, -1.009075618142502E-02,  9.599374591629171E-04,
2470085.500000000, A.D. 2050-Oct-06 00:00:00.0000,      69.182364, -2.423589144003080E+00,  9.367405819307616E-01, -7.290941013257234E-03, -3.670526699245053E-03, -1.017165552334338E-02,  9.607554210326144E-04,
2470090.500000000, A.D. 2050-Oct-11 00:00:00.0000,      69.182370, -2.441430657785574E+00,  8.856887153534326E-01, -2.485958905925646E-03, -3.465779599588313E-03, -1.024839349284000E-02,  9.611700884640951E-04,
2470095.500000000, A.D. 2050-Oct-16 00:00:00.0000,      69.182390, -2.458244024008152E+00,  8.342636625011384E-01,  2.320085483675218E-03, -3.259282954580404E-03, -1.032092223461913E-02,  9.611801307394828E-04,
2470100.500000000, A.D. 2050-Oct-21 00:00:00.0000,      69.182422, -2.474020725347494E+00,  7.824865846907925E-01,  7.125166169162546E-03, -3.051129166426866E-03, -1.038919603961729E-02,  9.607844411897126E-04,
2470105.500000000, A.D. 2050-Oct-26 00:00:00.0000,      69.182465, -2.488752710054411E+00,  7.303788663060700E-01,  1.192725219658003E-02, -2.841412052623380E-03, -1.045317139904068E-02,  9.599821398865410E-04,
2470110.500000000, A.D. 2050-Oct-31 00:00:00.0000,      69.182517, -2.502432398879054E+00,  6.779621036649193E-01,  1.672430878441668E-02, -2.630226785064802E-03, -1.051280705650674E-02,  9.587725761345659E-04,
2470115.500000000, A.D. 2050-Nov-05 00:00:00.0000,      69.182582, -2.515052691685839E+00,  6.252580936311143E-01,  2.151429847556503E-02, -2.417669826842685E-03, -1.056806405827700E-02,  9.571553307528562E-04,
2470120.500000000, A.D. 2050-Nov-10 00:00:00.0000,      69.182658, -2.526606973746834E+00,  5.722888219795828E-01,  2.629518230013417E-02, -2.203838866851496E-03, -1.061890580149657E-02,  9.551302181319138E-04,
2470125.500000000, A.D. 2050-Nov-15 00:00:00.0000,      69.182746, -2.537089121702940E+00,  5.190764515257529E-01,  3.106492094795782E-02, -1.988832752315506E-03, -1.066529808032723E-02,  9.526972880551025E-04,
2470130.500000000, A.D. 2050-Nov-20 00:00:00.0000,      69.182844, -2.546493509182709E+00,  4.656433100297391E-01,  3.582147594960831E-02, -1.772751419336524E-03, -1.070720912986082E-02,  9.498568272764794E-04,
2470135.500000000, A.D. 2050-Nov-25 00:00:00.0000,      69.182948, -2.554815012069152E+00,  4.120118778867382E-01,  4.056281086467515E-02, -1.555695821552463E-03, -1.074460966770400E-02,  9.466093608495375E-04,
2470140.500000000, A.D. 2050-Nov-30 00:00:00.0000,      69.183060, -2.562049013405276E+00,  3.582047756155311E-01,  4.528689247605813E-02, -1.337767856982740E-03, -1.077747293313562E-02,  9.429556532027948E-04,
2470145.500000000, A.D. 2050-Dec-05 00:00:00.0000,      69.183180, -2.568191407929423E+00,  3.042447511574365E-01,  4.999169198899718E-02, -1.119070293113327E-03, -1.080577472375955E-02,  9.388967089585163E-04,
2470150.500000000, A.D. 2050-Dec-10 00:00:00.0000,      69.183307, -2.573238606231754E+00,  2.501546669983193E-01,  5.467518623353806E-02, -8.997066902804985E-04, -1.082949342963307E-02,  9.344337734861720E-04,
2470155.500000000, A.D. 2050-Dec-15 00:00:00.0000,      69.183441, -2.577187538523810E+00,  1.959574871261571E-01,  5.933535886906129E-02, -6.797813235923315E-04, -1.084861006492763E-02,  9.295683331689993E-04,
2470160.500000000, A.D. 2050-Dec-20 00:00:00.0000,      69.183579, -2.580035658015234E+00,  1.416762638365449E-01,  6.397020158937569E-02, -4.593991039894538E-04, -1.086310829704805E-02,  9.243021153628617E-04,
2470165.500000000, A.D. 2050-Dec-25 00:00:00.0000,      69.183718, -2.581780943894705E+00,  8.733412439979542E-02,  6.857771532687458E-02, -2.386654988665508E-04, -1.087297447277923E-02,  9.186370880718876E-04,
2470170.500000000, A.D. 2050-Dec-30 00:00:00.0000,      69.183859, -2.582421903912058E+00,  3.295425760587523E-02,  7.315591145450760E-02, -1.768645178693264E-05, -1.087819764095999E-02,  9.125754594087168E-04,
2470175.500000000, A.D. 2051-Jan-04 00:00:00.0000,      69.184002, -2.581957576555099E+00, -2.144009979542920E-02,  7.770281298456373E-02,  2.034316994118102E-04, -1.087876957178331E-02,  9.061196768535259E-04,
2470180.500000000, A.D. 2051-Jan-09 00:00:00.0000,      69.184146, -2.580387532813051E+00, -7.582567674330384E-02,  8.221645576312915E-02,  4.245823059845387E-04, -1.087468477313027E-02,  8.992724262532883E-04,
2470185.500000000, A.D. 2051-Jan-14 00:00:00.0000,      69.184290, -2.577711877520843E+00, -1.301791815891227E-01,  8.669488965878616E-02,  6.456584924676783E-04, -1.086594050396582E-02,  8.920366305166147E-04,
2470190.500000000, A.D. 2051-Jan-19 00:00:00.0000,      69.184432, -2.573931250281117E+00, -1.844773158786006E-01,  9.113617974404283E-02,  8.665532414187669E-04, -1.085253678445977E-02,  8.844154480161254E-04,
2470195.500000000, A.D. 2051-Jan-24 00:00:00.0000,      69.184568, -2.569046825960723E+00, -2.386967881759026E-01,  9.553840746809632E-02,  1.087159478927268E-03, -1.083447640264968E-02,  8.764122707213446E-04,
2470200.500000000, A.D. 2051-Jan-29 00:00:00.0000,      69.184699, -2.563060314757227E+00, -2.928143279127464E-01,  9.989967181958184E-02,  1.307370161117413E-03, -1.081176491783068E-02,  8.680307220570110E-04,
2470205.500000000, A.D. 2051-Feb-03 00:00:00.0000,      69.184826, -2.555973961830624E+00, -3.468066992470401E-01,  1.042180904778796E-01,  1.527078361499435E-03, -1.078441066104041E-02,  8.592746544639658E-04,
2470210.500000000, A.D. 2051-Feb-08 00:00:00.0000,      69.184948, -2.547790546497190E+00, -4.006507149173066E-01,  1.084918009514489E-01,  1.746177358659002E-03, -1.075242473291698E-02,  8.501481466488982E-04,
2470215.500000000, A.D. 2051-Feb-13 00:00:00.0000,      69.185063, -2.538513380985402E+00, -4.543232500799498E-01,  1.127189617016492E-01,  1.964560723634724E-03, -1.071582099896057E-02,  8.406555005328484E-04,
